{
  "type": "FeatureCollection",
  "features": [
    {
      "type": "Feature",
      "properties": {
        "name": "Tri-Valley",
        "description": "Approximate boundary covering Dublin, Pleasanton, Livermore, Del Valle, Sycamore Grove, and Brushy Peak"
      },
      "geometry": {
        "type": "Polygon",
        "coordinates": [
          [
            [-121.98, 37.72],
            [-121.92, 37.76],
            [-121.78, 37.78],
            [-121.68, 37.76],
            [-121.65, 37.68],
            [-121.66, 37.58],
            [-121.72, 37.55],
            [-121.85, 37.56],
            [-121.95, 37.60],
            [-121.99, 37.66],
            [-121.98, 37.72]
          ]
        ]
      }
    }
  ]
}
